{
  "type": "FeatureCollection",
  "features": [
    {
      "type": "Feature",
      "properties": {
        "norad_id": 38709,
        "name": "EXACTVIEW-1 (ADS-1B)",
        "group": "resource",
        "lat": 4.796993629748185,
        "lon": -87.01197270106034,
        "alt_km": 818.7974095187546,
        "timestamp": "2025-12-09T21:34:11.063910+00:00",
        "meta_object_name": "EXACTVIEW-1 (ADS-1B)",
        "meta_object_id": "2012-039C",
        "meta_epoch": "2025-12-09T14:00:35.904096",
        "meta_mean_motion": 14.24906198,
        "meta_eccentricity": 0.00108373,
        "meta_inclination": 98.9636,
        "meta_ra_of_asc_node": 91.9076,
        "meta_arg_of_pericenter": 3.3781,
        "meta_mean_anomaly": 356.7468,
        "meta_ephemeris_type": 0,
        "meta_classification_type": "U",
        "meta_norad_cat_id": 38709,
        "meta_element_set_no": 999,
        "meta_rev_at_epoch": 69570,
        "meta_bstar": 0.00015812296,
        "meta_mean_motion_dot": 3.23e-06,
        "meta_mean_motion_ddot": 0,
        "tle_line1": "1 38709U 12039C   25343.58374889  .00000323  00000+0  15812-3 0  9998",
        "tle_line2": "2 38709  98.9636  91.9076 0010837   3.3781 356.7468 14.24906198695703"
      },
      "geometry": {
        "type": "Point",
        "coordinates": [
          -87.01197270106034,
          4.796993629748185
        ]
      }
    },
    {
      "type": "Feature",
      "properties": {
        "norad_id": 38755,
        "name": "SPOT 6",
        "group": "resource",
        "lat": -39.02908809720443,
        "lon": -137.9416619998156,
        "alt_km": 704.6007418205481,
        "timestamp": "2025-12-09T21:34:11.063919+00:00",
        "meta_object_name": "SPOT 6",
        "meta_object_id": "2012-047A",
        "meta_epoch": "2025-12-09T15:37:40.095264",
        "meta_mean_motion": 14.58599738,
        "meta_eccentricity": 0.00010805,
        "meta_inclination": 98.1572,
        "meta_ra_of_asc_node": 48.4923,
        "meta_arg_of_pericenter": 95.187,
        "meta_mean_anomaly": 264.9453,
        "meta_ephemeris_type": 0,
        "meta_classification_type": "U",
        "meta_norad_cat_id": 38755,
        "meta_element_set_no": 999,
        "meta_rev_at_epoch": 70542,
        "meta_bstar": 0.00020431536,
        "meta_mean_motion_dot": 9.05e-06,
        "meta_mean_motion_ddot": 0,
        "tle_line1": "1 38755U 12047A   25343.65115851  .00000905  00000+0  20432-3 0  9998",
        "tle_line2": "2 38755  98.1572  48.4923 0001080  95.1870 264.9453 14.58599738705421"
      },
      "geometry": {
        "type": "Point",
        "coordinates": [
          -137.9416619998156,
          -39.02908809720443
        ]
      }
    },
    {
      "type": "Feature",
      "properties": {
        "norad_id": 39019,
        "name": "PLEIADES 1B",
        "group": "resource",
        "lat": 60.41751900934277,
        "lon": -108.72781303906233,
        "alt_km": 691.2960527518499,
        "timestamp": "2025-12-09T21:34:11.063930+00:00",
        "meta_object_name": "PLEIADES 1B",
        "meta_object_id": "2012-068A",
        "meta_epoch": "2025-12-09T14:26:33.965664",
        "meta_mean_motion": 14.58549133,
        "meta_eccentricity": 0.00012457,
        "meta_inclination": 98.1794,
        "meta_ra_of_asc_node": 56.3031,
        "meta_arg_of_pericenter": 81.2042,
        "meta_mean_anomaly": 278.9298,
        "meta_ephemeris_type": 0,
        "meta_classification_type": "U",
        "meta_norad_cat_id": 39019,
        "meta_element_set_no": 999,
        "meta_rev_at_epoch": 69321,
        "meta_bstar": 0.0002088753,
        "meta_mean_motion_dot": 9.25e-06,
        "meta_mean_motion_ddot": 0,
        "tle_line1": "1 39019U 12068A   25343.60178201  .00000925  00000+0  20888-3 0  9995",
        "tle_line2": "2 39019  98.1794  56.3031 0001245  81.2042 278.9298 14.58549133693218"
      },
      "geometry": {
        "type": "Point",
        "coordinates": [
          -108.72781303906233,
          60.41751900934277
        ]
      }
    },
    {
      "type": "Feature",
      "properties": {
        "norad_id": 39030,
        "name": "GOKTURK 2",
        "group": "resource",
        "lat": 16.74108349339641,
        "lon": 8.020608037397277,
        "alt_km": 644.5479340702323,
        "timestamp": "2025-12-09T21:34:11.063940+00:00",
        "meta_object_name": "GOKTURK 2",
        "meta_object_id": "2012-073A",
        "meta_epoch": "2025-12-09T14:19:19.930944",
        "meta_mean_motion": 14.75284555,
        "meta_eccentricity": 9.203e-05,
        "meta_inclination": 97.689,
        "meta_ra_of_asc_node": 185.4046,
        "meta_arg_of_pericenter": 102.0956,
        "meta_mean_anomaly": 258.0357,
        "meta_ephemeris_type": 0,
        "meta_classification_type": "U",
        "meta_norad_cat_id": 39030,
        "meta_element_set_no": 999,
        "meta_rev_at_epoch": 69655,
        "meta_bstar": 0.00016578195,
        "meta_mean_motion_dot": 1.075e-05,
        "meta_mean_motion_ddot": 0,
        "tle_line1": "1 39030U 12073A   25343.59675846  .00001075  00000+0  16578-3 0  9997",
        "tle_line2": "2 39030  97.6890 185.4046 0000920 102.0956 258.0357 14.75284555696555"
      },
      "geometry": {
        "type": "Point",
        "coordinates": [
          8.020608037397277,
          16.74108349339641
        ]
      }
    },
    {
      "type": "Feature",
      "properties": {
        "norad_id": 39084,
        "name": "LANDSAT 8",
        "group": "resource",
        "lat": -56.00278880540058,
        "lon": 64.3710828631142,
        "alt_km": 710.2095864809253,
        "timestamp": "2025-12-09T21:34:11.063951+00:00",
        "meta_object_name": "LANDSAT 8",
        "meta_object_id": "2013-008A",
        "meta_epoch": "2025-12-09T15:14:17.373984",
        "meta_mean_motion": 14.57109735,
        "meta_eccentricity": 0.00011204,
        "meta_inclination": 98.2075,
        "meta_ra_of_asc_node": 51.7542,
        "meta_arg_of_pericenter": 87.4694,
        "meta_mean_anomaly": 272.6633,
        "meta_ephemeris_type": 0,
        "meta_classification_type": "U",
        "meta_norad_cat_id": 39084,
        "meta_element_set_no": 999,
        "meta_rev_at_epoch": 67029,
        "meta_bstar": 0.00018184084,
        "meta_mean_motion_dot": 7.74e-06,
        "meta_mean_motion_ddot": 0,
        "tle_line1": "1 39084U 13008A   25343.63492331  .00000774  00000+0  18184-3 0  9996",
        "tle_line2": "2 39084  98.2075  51.7542 0001120  87.4694 272.6633 14.57109735670298"
      },
      "geometry": {
        "type": "Point",
        "coordinates": [
          64.3710828631142,
          -56.00278880540058
        ]
      }
    },
    {
      "type": "Feature",
      "properties": {
        "norad_id": 39086,
        "name": "SARAL",
        "group": "resource",
        "lat": 2.2729567727276776,
        "lon": -11.791730384998468,
        "alt_km": 784.2800848842553,
        "timestamp": "2025-12-09T21:34:11.063961+00:00",
        "meta_object_name": "SARAL",
        "meta_object_id": "2013-009A",
        "meta_epoch": "2025-12-09T14:02:22.446528",
        "meta_mean_motion": 14.32755519,
        "meta_eccentricity": 0.00028042,
        "meta_inclination": 98.5504,
        "meta_ra_of_asc_node": 167.5566,
        "meta_arg_of_pericenter": 114.7939,
        "meta_mean_anomaly": 245.3537,
        "meta_ephemeris_type": 0,
        "meta_classification_type": "U",
        "meta_norad_cat_id": 39086,
        "meta_element_set_no": 999,
        "meta_rev_at_epoch": 66845,
        "meta_bstar": 0.00010570712,
        "meta_mean_motion_dot": 2.44e-06,
        "meta_mean_motion_ddot": 0,
        "tle_line1": "1 39086U 13009A   25343.58498202  .00000244  00000+0  10571-3 0  9990",
        "tle_line2": "2 39086  98.5504 167.5566 0002804 114.7939 245.3537 14.32755519668453"
      },
      "geometry": {
        "type": "Point",
        "coordinates": [
          -11.791730384998468,
          2.2729567727276776
        ]
      }
    },
    {
      "type": "Feature",
      "properties": {
        "norad_id": 39150,
        "name": "GAOFEN-1",
        "group": "resource",
        "lat": -47.93828938714278,
        "lon": -134.28109197781467,
        "alt_km": 644.2571639749804,
        "timestamp": "2025-12-09T21:34:11.063971+00:00",
        "meta_object_name": "GAOFEN-1",
        "meta_object_id": "2013-018A",
        "meta_epoch": "2025-12-09T15:39:36.614304",
        "meta_mean_motion": 14.76527469,
        "meta_eccentricity": 0.00179701,
        "meta_inclination": 97.9327,
        "meta_ra_of_asc_node": 54.3663,
        "meta_arg_of_pericenter": 152.418,
        "meta_mean_anomaly": 207.7987,
        "meta_ephemeris_type": 0,
        "meta_classification_type": "U",
        "meta_norad_cat_id": 39150,
        "meta_element_set_no": 999,
        "meta_rev_at_epoch": 68027,
        "meta_bstar": 0.00024809524,
        "meta_mean_motion_dot": 1.683e-05,
        "meta_mean_motion_ddot": 0,
        "tle_line1": "1 39150U 13018A   25343.65250711  .00001683  00000+0  24810-3 0  9990",
        "tle_line2": "2 39150  97.9327  54.3663 0017970 152.4180 207.7987 14.76527469680273"
      },
      "geometry": {
        "type": "Point",
        "coordinates": [
          -134.28109197781467,
          -47.93828938714278
        ]
      }
    }
  ]
}